H1 CPF 01  gfz 2021 05 16 00  6361 terrasarx 
H2 0702601  6201 31698    2021 05 16 00 59 42 2021 05 21 00 00 42   120 1 1  0 0 0
H9
10 0 59351  33102.000000  0    1358590.179   -179902.986   6740125.698
10 0 59351  33222.000000  0    1932897.634   -871866.527   6543463.511
10 0 59351  33342.000000  0    2461416.010  -1558266.154   6231802.952
10 0 59351  33462.000000  0    2935119.410  -2226234.655   5810588.568
10 0 59351  33582.000000  0    3346154.233  -2863069.508   5287188.329
10 0 59351  33702.000000  0    3687972.698  -3456476.312   4670770.822
10 0 59351  33822.000000  0    3955441.455  -3994809.759   3972150.180
10 0 59351  33942.000000  0    4144922.599  -4467307.098   3203599.762
10 0 59351  34062.000000  0    4254324.687  -4864308.909   2378637.673
10 0 59351  34182.000000  0    4283122.991  -5177461.635   1511786.793
10 0 59351  34302.000000  0    4232347.344  -5399896.429    618313.941
10 0 59351  34422.000000  0    4104537.510  -5526379.235   -286046.090
10 0 59351  34542.000000  0    3903669.090  -5553429.823  -1185375.213
10 0 59351  34662.000000  0    3635049.178  -5479405.794  -2063862.075
10 0 59351  34782.000000  0    3305185.621  -5304548.140  -2906087.257
10 0 59351  34902.000000  0    2921634.269  -5030989.275  -3697299.686
10 0 59351  35022.000000  0    2492826.631  -4662722.827  -4423677.211
10 0 59351  35142.000000  0    2027883.482  -4205537.083  -5072566.086
10 0 59351  35262.000000  0    1536420.481  -3666913.840  -5632694.981
10 0 59351  35382.000000  0    1028350.210  -3055897.474  -6094361.120
10 0 59351  35502.000000  0     513683.459  -2382937.319  -6449587.890
10 0 59351  35622.000000  0       2334.071  -1659705.047  -6692251.815
10 0 59351  35742.000000  0    -496068.043   -898891.046  -6818177.575
10 0 59351  35862.000000  0    -972353.039   -113983.786  -6825201.852
10 0 59351  35982.000000  0   -1417975.624    680964.384  -6713205.609
10 0 59351  36102.000000  0   -1825164.891   1471582.175  -6484115.491
10 0 59351  36222.000000  0   -2187056.557   2243432.758  -6141874.073
10 0 59351  36342.000000  0   -2497807.738   2982271.524  -5692380.420
10 0 59351  36462.000000  0   -2752691.853   3674306.530  -5143398.788
10 0 59351  36582.000000  0   -2948172.497   4306456.461  -4504436.467
10 0 59351  36702.000000  0   -3081954.694   4866601.902  -3786589.286
10 0 59351  36822.000000  0   -3153010.735   5343822.881  -3002356.734
10 0 59351  36942.000000  0   -3161580.953   5728618.432  -2165431.879
10 0 59351  37062.000000  0   -3109149.926   6013105.762  -1290466.021
10 0 59351  37182.000000  0   -2998395.425   6191190.287   -392810.361
10 0 59351  37302.000000  0   -2833113.772   6258701.608    511756.291
10 0 59351  37422.000000  0   -2618123.095   6213495.623   1407312.878
10 0 59351  37542.000000  0   -2359142.069   6055512.988   2278088.036
10 0 59351  37662.000000  0   -2062650.485   5786793.473   3108746.855
10 0 59351  37782.000000  0   -1735736.520   5411448.764   3884667.429
10 0 59351  37902.000000  0   -1385934.170   4935594.561   4592202.853
10 0 59351  38022.000000  0   -1021054.069   4367243.094   5218923.781
10 0 59351  38142.000000  0    -649011.196   3716158.963   5753835.498
10 0 59351  38262.000000  0    -277656.375   2993683.080   6187567.237
10 0 59351  38382.000000  0      85387.082   2212527.225   6512530.780
10 0 59351  38502.000000  0     432877.609   1386545.940   6723047.014
10 0 59351  38622.000000  0     758098.273    530487.383   6815439.687
10 0 59351  38742.000000  0    1054985.085   -340270.191   6788094.528
10 0 59351  38862.000000  0    1318239.164  -1209993.552   6641486.832
10 0 59351  38982.000000  0    1543421.295  -2062878.398   6378174.048
10 0 59351  39102.000000  0    1727027.150  -2883336.396   6002754.664
10 0 59351  39222.000000  0    1866542.107  -3656281.968   5521792.734
10 0 59351  39342.000000  0    1960474.434  -4367412.780   4943708.058
10 0 59351  39462.000000  0    2008367.000  -5003478.196   4278634.558
10 0 59351  39582.000000  0    2010788.120  -5552534.144   3538248.562
10 0 59351  39702.000000  0    1969299.195  -6004177.002   2735565.065
10 0 59351  39822.000000  0    1886399.817  -6349748.932   1884707.972
10 0 59351  39942.000000  0    1765454.059  -6582511.407   1000658.993
10 0 59351  40062.000000  0    1610597.427  -6697783.484     98988.554
10 0 59351  40182.000000  0    1426626.837  -6693040.919   -804426.117
10 0 59351  40302.000000  0    1218875.861  -6567970.580  -1693692.424
10 0 59351  40422.000000  0     993078.698  -6324476.980  -2553190.285
10 0 59351  40542.000000  0     755227.965  -5966645.544  -3367852.462
10 0 59351  40662.000000  0     511431.038  -5500663.304  -4123431.794
10 0 59351  40782.000000  0     267765.528  -4934699.352  -4806750.090
10 0 59351  40902.000000  0      30138.781  -4278748.929  -5405923.110
10 0 59351  41022.000000  0    -195845.146  -3544446.090  -5910559.729
10 0 59351  41142.000000  0    -405008.401  -2744848.519  -6311932.009
10 0 59351  41262.000000  0    -592709.773  -1894200.182  -6603114.773
10 0 59351  41382.000000  0    -754940.961  -1007676.445  -6779093.765
10 0 59351  41502.000000  0    -888407.063   -101115.969  -6836843.453
10 0 59351  41622.000000  0    -990589.979    809257.535  -6775372.501
10 0 59351  41742.000000  0   -1059794.356   1707117.979  -6595738.326
10 0 59351  41862.000000  0   -1095175.285   2576322.204  -6301030.648
10 0 59351  41982.000000  0   -1096747.241   3401193.906  -5896325.440
10 0 59351  42102.000000  0   -1065374.636   4166804.090  -5388606.933
10 0 59351  42222.000000  0   -1002743.292   4859241.488  -4786658.171
10 0 59351  42342.000000  0    -911314.042   5465870.354  -4100920.503
10 0 59351  42462.000000  0    -794258.568   5975569.065  -3343321.657
10 0 59351  42582.000000  0    -655378.354   6378943.925  -2527075.688
10 0 59351  42702.000000  0    -499008.313   6668514.622  -1666457.175
10 0 59351  42822.000000  0    -329907.550   6838865.188   -776551.950
10 0 59351  42942.000000  0    -153138.899   6886756.495    127010.043
10 0 59351  43062.000000  0      26059.695   6811196.831   1028335.491
10 0 59351  43182.000000  0     202408.055   6613467.260   1911556.662
10 0 59351  43302.000000  0     370716.951   6297099.058   2761120.284
10 0 59351  43422.000000  0     526018.534   5867806.366   3562068.237
10 0 59351  43542.000000  0     663691.695   5333377.414   4300306.025
10 0 59351  43662.000000  0     779579.137   4703526.629   4962857.777
10 0 59351  43782.000000  0     870090.825   3989702.325   5538094.848
10 0 59351  43902.000000  0     932295.265   3204870.485   6015934.445
10 0 59351  44022.000000  0     963994.451   2363271.584   6388012.429
10 0 59351  44142.000000  0     963780.546   1480156.174   6647823.947
10 0 59351  44262.000000  0     931074.601    571504.477   6790831.192
10 0 59351  44382.000000  0     866146.328   -346263.402   6814536.710
10 0 59351  44502.000000  0     770114.358  -1256582.876   6718525.484
10 0 59351  44622.000000  0     644926.886  -2143043.904   6504472.378
10 0 59351  44742.000000  0     493322.886  -2989686.867   6176115.369
10 0 59351  44862.000000  0     318774.556  -3781292.125   5739192.975
10 0 59351  44982.000000  0     125412.730  -4503654.413   5201347.587
10 0 59351  45102.000000  0     -82063.268  -5143841.169   4571999.313
10 0 59351  45222.000000  0    -298490.824  -5690433.031   3862188.494
10 0 59351  45342.000000  0    -518363.276  -6133738.191   3084384.881
10 0 59351  45462.000000  0    -735959.507  -6465974.436   2252269.095
10 0 59351  45582.000000  0    -945479.726  -6681414.469   1380489.685
10 0 59351  45702.000000  0   -1141186.099  -6776493.966    484401.233
10 0 59351  45822.000000  0   -1317544.736  -6749875.306   -420215.397
10 0 59351  45942.000000  0   -1469362.862  -6602464.719  -1317440.294
10 0 59351  46062.000000  0   -1591918.929  -6337384.679  -2191503.024
10 0 59351  46182.000000  0   -1681083.018  -5959902.749  -3027066.783
10 0 59351  46302.000000  0   -1733424.478  -5477318.101  -3809502.817
10 0 59351  46422.000000  0   -1746303.624  -4898808.449  -4525148.153
10 0 59351  46542.000000  0   -1717945.398  -4235243.253  -5161540.910
10 0 59351  46662.000000  0   -1647494.149  -3498969.265  -5707630.454
10 0 59351  46782.000000  0   -1535048.451  -2703573.079  -6153960.465
10 0 59351  46902.000000  0   -1381675.309  -1863624.936  -6492822.320
10 0 59351  47022.000000  0   -1189404.071   -994409.958  -6718376.330
10 0 59351  47142.000000  0    -961200.961   -111652.236  -6826741.907
10 0 59351  47262.000000  0    -700923.828    768764.599  -6816056.509
10 0 59351  47382.000000  0    -413257.512   1631075.759  -6686503.681
10 0 59351  47502.000000  0    -103632.264   2459910.084  -6440310.119
10 0 59351  47622.000000  0     221874.866   3240558.152  -6081713.267
10 0 59351  47742.000000  0     556655.903   3959231.237  -5616896.668
10 0 59351  47862.000000  0     893701.274   4603304.374  -5053892.786
10 0 59351  47982.000000  0    1225741.099   5161541.979  -4402456.279
10 0 59351  48102.000000  0    1545396.957   5624301.885  -3673905.455
10 0 59351  48222.000000  0    1845340.480   5983711.467  -2880934.024
10 0 59351  48342.000000  0    2118455.469   6233813.280  -2037396.116
10 0 59351  48462.000000  0    2358000.241   6370676.170  -1158066.140
10 0 59351  48582.000000  0    2557765.773   6392467.038   -258377.349
10 0 59351  48702.000000  0    2712225.436   6299480.491    645854.635
10 0 59351  48822.000000  0    2816672.281   6094125.902   1538716.873
10 0 59351  48942.000000  0    2867340.360   5780872.495   2404487.218
10 0 59351  49062.000000  0    2861507.309   5366153.248   3227919.269
10 0 59351  49182.000000  0    2797575.652   4858229.707   3994518.116
10 0 59351  49302.000000  0    2675130.498   4267022.128   4690801.525
10 0 59351  49422.000000  0    2494969.747   3603905.780   5304540.723
10 0 59351  49542.000000  0    2259109.124   2881482.817   5824971.554
99
